[{"OBJECT_NAME":"IRIDIUM 133","OBJECT_ID":"2017-061A","EPOCH":"2026-03-09T23:02:46.694688","MEAN_MOTION":14.34217647,"ECCENTRICITY":0.0002155,"INCLINATION":86.3917,"RA_OF_ASC_NODE":66.7467,"ARG_OF_PERICENTER":89.8241,"MEAN_ANOMALY":270.3201,"EPHEMERIS_TYPE":0,"CLASSIFICATION_TYPE":"U","NORAD_CAT_ID":42955,"ELEMENT_SET_NO":999,"REV_AT_EPOCH":44055,"BSTAR":5.149012e-6,"MEAN_MOTION_DOT":3.4e-7,"MEAN_MOTION_DDOT":0},{"OBJECT_NAME":"METEOR 2-8 DEB","OBJECT_ID":"1982-025Y","EPOCH":"2026-03-07T23:10:37.040736","MEAN_MOTION":14.30156088,"ECCENTRICITY":0.00195592,"INCLINATION":82.5172,"RA_OF_ASC_NODE":261.0264,"ARG_OF_PERICENTER":351.9115,"MEAN_ANOMALY":8.1752,"EPHEMERIS_TYPE":0,"CLASSIFICATION_TYPE":"U","NORAD_CAT_ID":36338,"ELEMENT_SET_NO":999,"REV_AT_EPOCH":9128,"BSTAR":0.0028287736,"MEAN_MOTION_DOT":7.351e-5,"MEAN_MOTION_DDOT":0}]
